start=new Date('2022-08-13T00:00:00.000Z').valueOf();
sats=[{"MEAN_MOTION_DDOT":"0.0000000000000","PERIAPSIS":"574.902","INCLINATION":"69.9999","APOAPSIS":"579.181","OBJECT_ID":"2021-082Z","DECAY_DATE":null,"MEAN_ELEMENT_THEORY":"SGP4","ARG_OF_PERICENTER":"258.8729","OBJECT_TYPE":"PAYLOAD","TIME_SYSTEM":"UTC","BSTAR":"0.00017267000000","FILE":"3535519","MEAN_ANOMALY":"101.2083","OBJECT_NAME":"STARLINK-3072","REF_FRAME":"TEME","TLE_LINE1":"1 49153U 21082Z   22224.61784866  .00001885  00000-0  17267-3 0  9991","ELEMENT_SET_NO":"999","TLE_LINE2":"2 49153  69.9999 304.6677 0003076 258.8729 101.2083 14.96719944 52696","GP_ID":"210108111","LAUNCH_DATE":"2021-09-14","MEAN_MOTION_DOT":"0.00001885","SEMIMAJOR_AXIS":"6955.176","CENTER_NAME":"EARTH","PERIOD":"96.210","ECCENTRICITY":"0.00030760","CLASSIFICATION_TYPE":"U","SITE":"AFWTR","MEAN_MOTION":"14.96719944","NORAD_CAT_ID":"49153","RCS_SIZE":"LARGE","EPHEMERIS_TYPE":"0","EPOCH":"2022-08-12T14:49:42.124224","REV_AT_EPOCH":"5269","RA_OF_ASC_NODE":"304.6677","COUNTRY_CODE":"US"},{"SITE":"AFWTR","CLASSIFICATION_TYPE":"U","ECCENTRICITY":"0.00032730","COUNTRY_CODE":"US","RA_OF_ASC_NODE":"324.7174","REV_AT_EPOCH":"5207","EPHEMERIS_TYPE":"0","RCS_SIZE":"LARGE","EPOCH":"2022-08-12T16:31:13.178208","NORAD_CAT_ID":"49154","MEAN_MOTION":"14.96715419","MEAN_MOTION_DOT":"0.00002392","LAUNCH_DATE":"2021-09-14","TLE_LINE2":"2 49154  69.9994 324.7174 0003273 250.7364 109.3441 14.96715419 52074","GP_ID":"210107861","ELEMENT_SET_NO":"999","TLE_LINE1":"1 49154U 21082AA  22224.68834697  .00002392  00000-0  21691-3 0  9997","REF_FRAME":"TEME","PERIOD":"96.211","CENTER_NAME":"EARTH","SEMIMAJOR_AXIS":"6955.190","BSTAR":"0.00021691000000","TIME_SYSTEM":"UTC","OBJECT_TYPE":"PAYLOAD","ARG_OF_PERICENTER":"250.7364","MEAN_ELEMENT_THEORY":"SGP4","OBJECT_NAME":"STARLINK-3068","MEAN_ANOMALY":"109.3441","FILE":"3535519","PERIAPSIS":"574.779","MEAN_MOTION_DDOT":"0.0000000000000","DECAY_DATE":null,"OBJECT_ID":"2021-082AA","APOAPSIS":"579.332","INCLINATION":"69.9994"},{"MEAN_ELEMENT_THEORY":"SGP4","ARG_OF_PERICENTER":"261.4212","OBJECT_TYPE":"PAYLOAD","TIME_SYSTEM":"UTC","BSTAR":"0.00055806000000","FILE":"3535519","OBJECT_NAME":"STARLINK-3060","MEAN_ANOMALY":"98.6556","PERIAPSIS":"573.204","MEAN_MOTION_DDOT":"0.0000000000000","INCLINATION":"69.9998","OBJECT_ID":"2021-082AB","DECAY_DATE":null,"APOAPSIS":"577.989","SITE":"AFWTR","CLASSIFICATION_TYPE":"U","ECCENTRICITY":"0.00034410","RCS_SIZE":"LARGE","EPHEMERIS_TYPE":"0","EPOCH":"2022-08-12T17:44:43.081728","MEAN_MOTION":"14.97186440","NORAD_CAT_ID":"49155","REV_AT_EPOCH":"5258","RA_OF_ASC_NODE":"304.2848","COUNTRY_CODE":"US","TLE_LINE1":"1 49155U 21082AB  22224.73938752  .00006379  00000-0  55806-3 0  9995","ELEMENT_SET_NO":"999","REF_FRAME":"TEME","GP_ID":"210107110","TLE_LINE2":"2 49155  69.9998 304.2848 0003441 261.4212  98.6556 14.97186440 52588","LAUNCH_DATE":"2021-09-14","MEAN_MOTION_DOT":"0.00006379","CENTER_NAME":"EARTH","SEMIMAJOR_AXIS":"6953.732","PERIOD":"96.180"},{"INCLINATION":"70.0003","APOAPSIS":"579.213","OBJECT_ID":"2021-082AC","DECAY_DATE":null,"MEAN_MOTION_DDOT":"0.0000000000000","PERIAPSIS":"574.969","FILE":"3535519","MEAN_ANOMALY":"99.8285","OBJECT_NAME":"STARLINK-3085","ARG_OF_PERICENTER":"260.2529","MEAN_ELEMENT_THEORY":"SGP4","OBJECT_TYPE":"PAYLOAD","TIME_SYSTEM":"UTC","BSTAR":"0.00016312000000","SEMIMAJOR_AXIS":"6955.226","CENTER_NAME":"EARTH","PERIOD":"96.211","REF_FRAME":"TEME","TLE_LINE1":"1 49156U 21082AC  22224.65972956  .00001775  00000-0  16312-3 0  9995","ELEMENT_SET_NO":"999","GP_ID":"210107360","TLE_LINE2":"2 49156  70.0003 304.5415 0003051 260.2529  99.8285 14.96703975 52575","MEAN_MOTION_DOT":"0.00001775","LAUNCH_DATE":"2021-09-14","MEAN_MOTION":"14.96703975","NORAD_CAT_ID":"49156","EPHEMERIS_TYPE":"0","RCS_SIZE":"LARGE","EPOCH":"2022-08-12T15:50:00.633984","REV_AT_EPOCH":"5257","RA_OF_ASC_NODE":"304.5415","COUNTRY_CODE":"US","ECCENTRICITY":"0.00030510","CLASSIFICATION_TYPE":"U","SITE":"AFWTR"},{"TLE_LINE1":"1 49157U 21082AD  22224.75031676  .00005716  00000-0  50688-3 0  9995","ELEMENT_SET_NO":"999","REF_FRAME":"TEME","GP_ID":"210107611","TLE_LINE2":"2 49157  70.0011 324.5602 0004782 238.1248 121.9445 14.96718442 52108","MEAN_MOTION_DOT":"0.00005716","LAUNCH_DATE":"2021-09-14","CENTER_NAME":"EARTH","SEMIMAJOR_AXIS":"6955.181","PERIOD":"96.210","CLASSIFICATION_TYPE":"U","SITE":"AFWTR","ECCENTRICITY":"0.00047820","EPOCH":"2022-08-12T18:00:27.368064","RCS_SIZE":"LARGE","EPHEMERIS_TYPE":"0","MEAN_MOTION":"14.96718442","NORAD_CAT_ID":"49157","REV_AT_EPOCH":"5210","RA_OF_ASC_NODE":"324.5602","COUNTRY_CODE":"US","PERIAPSIS":"573.720","MEAN_MOTION_DDOT":"0.0000000000000","INCLINATION":"70.0011","OBJECT_ID":"2021-082AD","DECAY_DATE":null,"APOAPSIS":"580.372","ARG_OF_PERICENTER":"238.1248","MEAN_ELEMENT_THEORY":"SGP4","OBJECT_TYPE":"PAYLOAD","TIME_SYSTEM":"UTC","BSTAR":"0.00050688000000","FILE":"3535519","OBJECT_NAME":"STARLINK-3051","MEAN_ANOMALY":"121.9445"},{"ECCENTRICITY":"0.00032360","CLASSIFICATION_TYPE":"U","SITE":"AFWTR","RA_OF_ASC_NODE":"324.7516","REV_AT_EPOCH":"5209","COUNTRY_CODE":"US","MEAN_MOTION":"14.96705934","NORAD_CAT_ID":"49158","EPOCH":"2022-08-12T16:15:53.409600","RCS_SIZE":"LARGE","EPHEMERIS_TYPE":"0","TLE_LINE2":"2 49158  70.0012 324.7516 0003236 257.9911 102.0884 14.96705934 52092","GP_ID":"210108362","MEAN_MOTION_DOT":"0.00002509","LAUNCH_DATE":"2021-09-14","REF_FRAME":"TEME","TLE_LINE1":"1 49158U 21082AE  22224.67770150  .00002509  00000-0  22718-3 0  9994","ELEMENT_SET_NO":"999","PERIOD":"96.211","SEMIMAJOR_AXIS":"6955.220","CENTER_NAME":"EARTH","TIME_SYSTEM":"UTC","BSTAR":"0.00022718000000","MEAN_ELEMENT_THEORY":"SGP4","ARG_OF_PERICENTER":"257.9911","OBJECT_TYPE":"PAYLOAD","MEAN_ANOMALY":"102.0884","OBJECT_NAME":"STARLINK-3083","FILE":"3535519","MEAN_MOTION_DDOT":"0.0000000000000","PERIAPSIS":"574.834","APOAPSIS":"579.335","OBJECT_ID":"2021-082AE","DECAY_DATE":null,"INCLINATION":"70.0012"},{"ECCENTRICITY":"0.00034440","CLASSIFICATION_TYPE":"U","SITE":"AFWTR","MEAN_MOTION":"14.98337776","NORAD_CAT_ID":"49159","EPHEMERIS_TYPE":"0","RCS_SIZE":"LARGE","EPOCH":"2022-08-12T17:32:54.331296","REV_AT_EPOCH":"5160","RA_OF_ASC_NODE":"344.7153","COUNTRY_CODE":"US","REF_FRAME":"TEME","TLE_LINE1":"1 49159U 21082AF  22224.73118439  .00000580  00000-0  56365-4 0  9991","ELEMENT_SET_NO":"999","TLE_LINE2":"2 49159  70.0023 344.7153 0003444 249.5716 110.5073 14.98337776 51602","GP_ID":"210106610","MEAN_MOTION_DOT":"0.00000580","LAUNCH_DATE":"2021-09-14","SEMIMAJOR_AXIS":"6950.169","CENTER_NAME":"EARTH","PERIOD":"96.107","MEAN_ELEMENT_THEORY":"SGP4","ARG_OF_PERICENTER":"249.5716","OBJECT_TYPE":"PAYLOAD","TIME_SYSTEM":"UTC","BSTAR":"0.00005636500000","FILE":"3535519","MEAN_ANOMALY":"110.5073","OBJECT_NAME":"STARLINK-3056","MEAN_MOTION_DDOT":"0.0000000000000","PERIAPSIS":"569.640","INCLINATION":"70.0023","APOAPSIS":"574.427","OBJECT_ID":"2021-082AF","DECAY_DATE":null},{"CENTER_NAME":"EARTH","SEMIMAJOR_AXIS":"6950.202","PERIOD":"96.107","TLE_LINE1":"1 49160U 21082AG  22224.78840162  .00001824  00000-0  16067-3 0  9999","ELEMENT_SET_NO":"999","REF_FRAME":"TEME","TLE_LINE2":"2 49160  70.0012 344.5704 0003091 260.4114  99.6696 14.98327018 51587","GP_ID":"210106860","LAUNCH_DATE":"2021-09-14","MEAN_MOTION_DOT":"0.00001824","EPHEMERIS_TYPE":"0","RCS_SIZE":"LARGE","EPOCH":"2022-08-12T18:55:17.899968","MEAN_MOTION":"14.98327018","NORAD_CAT_ID":"49160","REV_AT_EPOCH":"5158","RA_OF_ASC_NODE":"344.5704","COUNTRY_CODE":"US","SITE":"AFWTR","CLASSIFICATION_TYPE":"U","ECCENTRICITY":"0.00030910","INCLINATION":"70.0012","OBJECT_ID":"2021-082AG","DECAY_DATE":null,"APOAPSIS":"574.215","PERIAPSIS":"569.919","MEAN_MOTION_DDOT":"0.0000000000000","FILE":"3535519","OBJECT_NAME":"STARLINK-3095","MEAN_ANOMALY":"99.6696","ARG_OF_PERICENTER":"260.4114","MEAN_ELEMENT_THEORY":"SGP4","OBJECT_TYPE":"PAYLOAD","TIME_SYSTEM":"UTC","BSTAR":"0.00016067000000"},{"TLE_LINE2":"2 49161  70.0001 344.5527 0003363 252.8146 107.2645 14.98326464 51596","GP_ID":"210108112","LAUNCH_DATE":"2021-09-14","MEAN_MOTION_DOT":"0.00000129","REF_FRAME":"TEME","TLE_LINE1":"1 49161U 21082AH  22224.79316008  .00000129  00000-0  18607-4 0  9998","ELEMENT_SET_NO":"999","PERIOD":"96.107","SEMIMAJOR_AXIS":"6950.204","CENTER_NAME":"EARTH","ECCENTRICITY":"0.00033630","CLASSIFICATION_TYPE":"U","SITE":"AFWTR","REV_AT_EPOCH":"5159","RA_OF_ASC_NODE":"344.5527","COUNTRY_CODE":"US","MEAN_MOTION":"14.98326464","NORAD_CAT_ID":"49161","RCS_SIZE":"LARGE","EPHEMERIS_TYPE":"0","EPOCH":"2022-08-12T19:02:09.030912","MEAN_MOTION_DDOT":"0.0000000000000","PERIAPSIS":"569.731","APOAPSIS":"574.406","OBJECT_ID":"2021-082AH","DECAY_DATE":null,"INCLINATION":"70.0001","TIME_SYSTEM":"UTC","BSTAR":"0.00001860700000","MEAN_ELEMENT_THEORY":"SGP4","ARG_OF_PERICENTER":"252.8146","OBJECT_TYPE":"PAYLOAD","MEAN_ANOMALY":"107.2645","OBJECT_NAME":"STARLINK-3080","FILE":"3535519"},{"GP_ID":"210107862","TLE_LINE2":"2 49162  70.0013 344.7456 0003215 257.5864 102.4935 14.98331220 51661","LAUNCH_DATE":"2021-09-14","MEAN_MOTION_DOT":"0.00002210","TLE_LINE1":"1 49162U 21082AJ  22224.71686628  .00002210  00000-0  19293-3 0  9993","ELEMENT_SET_NO":"999","REF_FRAME":"TEME","PERIOD":"96.107","CENTER_NAME":"EARTH","SEMIMAJOR_AXIS":"6950.189","SITE":"AFWTR","CLASSIFICATION_TYPE":"U","ECCENTRICITY":"0.00032150","REV_AT_EPOCH":"5166","RA_OF_ASC_NODE":"344.7456","COUNTRY_CODE":"US","EPHEMERIS_TYPE":"0","RCS_SIZE":"LARGE","EPOCH":"2022-08-12T17:12:17.246592","MEAN_MOTION":"14.98331220","NORAD_CAT_ID":"49162","PERIAPSIS":"569.820","MEAN_MOTION_DDOT":"0.0000000000000","OBJECT_ID":"2021-082AJ","DECAY_DATE":null,"APOAPSIS":"574.289","INCLINATION":"70.0013","TIME_SYSTEM":"UTC","BSTAR":"0.00019293000000","ARG_OF_PERICENTER":"257.5864","MEAN_ELEMENT_THEORY":"SGP4","OBJECT_TYPE":"PAYLOAD","OBJECT_NAME":"STARLINK-3082","MEAN_ANOMALY":"102.4935","FILE":"3535519"}];
